STARLINK-32201          
1 61512U 24183D   26068.43019996  .00000088  00000+0  15082-4 0  9991
2 61512  53.1600 130.8022 0000953  92.4645 267.6464 15.30191196 79798
TEVEL2-8                
1 63239U 25052AF  26068.66815442  .00019130  00000+0  69304-3 0  9993
2 63239  97.4055 324.2923 0008031 124.9191 235.2804 15.28392908 54807
